{
"type": "FeatureCollection",
"name": "water_quality_sites",
"crs": { "type": "name", "properties": { "name": "urn:ogc:def:crs:OGC:1.3:CRS84" } },
"features": [
{"type":"Feature","properties":{"STATION_NAME":"MP_BallCreek_0.63","OVERALL_ANNUAL":43},"geometry":{"type":"Point","coordinates":[-122.225471999801997,47.159758998988799]}},
{"type":"Feature","properties":{"STATION_NAME":"AI_SchoolHouseCreek_0.11","OVERALL_ANNUAL":63},"geometry":{"type":"Point","coordinates":[-122.707530999937006,47.151727999172898]}},
{"type":"Feature","properties":{"STATION_NAME":"CW_SpiketonCreek_0.07","OVERALL_ANNUAL":72},"geometry":{"type":"Point","coordinates":[-122.063600999849996,47.139066999153997]}},
{"type":"Feature","properties":{"STATION_NAME":"CL_SwanCreek_0.38","OVERALL_ANNUAL":61},"geometry":{"type":"Point","coordinates":[-122.391724000134005,47.2288439989713]}},
{"type":"Feature","properties":{"STATION_NAME":"CL_DiruCreek_0.45","OVERALL_ANNUAL":73},"geometry":{"type":"Point","coordinates":[-122.337788999950007,47.1928069990281]}},
{"type":"Feature","properties":{"STATION_NAME":"GH_NelyalyCreek_0.02","OVERALL_ANNUAL":65},"geometry":{"type":"Point","coordinates":[-122.647799999837005,47.342694999054899]}},
{"type":"Feature","properties":{"STATION_NAME":"GH_MarkDicksonCreek_0.11","OVERALL_ANNUAL":52},"geometry":{"type":"Point","coordinates":[-122.657176000004,47.318210999124297]}},
{"type":"Feature","properties":{"STATION_NAME":"CW_CoplarCreek_0.00","OVERALL_ANNUAL":78},"geometry":{"type":"Point","coordinates":[-122.175270999890998,47.082937999105297]}},
{"type":"Feature","properties":{"STATION_NAME":"CW_BowmanCreek_2.66","OVERALL_ANNUAL":61},"geometry":{"type":"Point","coordinates":[-122.173816999901007,47.256741999142001]}},
{"type":"Feature","properties":{"STATION_NAME":"MP_FennelCreek_5.72","OVERALL_ANNUAL":46},"geometry":{"type":"Point","coordinates":[-122.154863000068005,47.178092999048502]}},
{"type":"Feature","properties":{"STATION_NAME":"MP_HorseHavenCreek_1.81","OVERALL_ANNUAL":45},"geometry":{"type":"Point","coordinates":[-122.230233999961996,47.0912109991365]}},
{"type":"Feature","properties":{"STATION_NAME":"NI_CopperCreek_0.12","OVERALL_ANNUAL":90},"geometry":{"type":"Point","coordinates":[-121.961573999899002,46.755212999018603]}},
{"type":"Feature","properties":{"STATION_NAME":"CL_ClearCreek_1.70","OVERALL_ANNUAL":73},"geometry":{"type":"Point","coordinates":[-122.374677000149006,47.219142999119903]}},
{"type":"Feature","properties":{"STATION_NAME":"NI_ElbeCreek_1.88","OVERALL_ANNUAL":20},"geometry":{"type":"Point","coordinates":[-122.155533999990993,46.760269999061002]}},
{"type":"Feature","properties":{"STATION_NAME":"GH_RosedaleCreek_0.05","OVERALL_ANNUAL":71},"geometry":{"type":"Point","coordinates":[-122.649417000195001,47.330133999126701]}},
{"type":"Feature","properties":{"STATION_NAME":"NI_OhopCreek_2.62","OVERALL_ANNUAL":52},"geometry":{"type":"Point","coordinates":[-122.342846999941003,46.868120999127299]}},
{"type":"Feature","properties":{"STATION_NAME":"NI_OhopCreek_7.17","OVERALL_ANNUAL":35},"geometry":{"type":"Point","coordinates":[-122.279006000099002,46.882176998991497]}},
{"type":"Feature","properties":{"STATION_NAME":"CC_SpanawayCreek_2.42","OVERALL_ANNUAL":64},"geometry":{"type":"Point","coordinates":[-122.446437999945999,47.122207999102201]}},
{"type":"Feature","properties":{"STATION_NAME":"MP_BallCreek_0.13","OVERALL_ANNUAL":49},"geometry":{"type":"Point","coordinates":[-122.216754999920994,47.163069999190597]}},
{"type":"Feature","properties":{"STATION_NAME":"CC_CloverCreek_6.87","OVERALL_ANNUAL":51},"geometry":{"type":"Point","coordinates":[-122.423480999893002,47.1276199991486]}},
{"type":"Feature","properties":{"STATION_NAME":"NI_MidwayCreek_3.17","OVERALL_ANNUAL":49},"geometry":{"type":"Point","coordinates":[-122.237829999897997,46.813006999077402]}},
{"type":"Feature","properties":{"STATION_NAME":"KP_RockyCreek_1.20","OVERALL_ANNUAL":83},"geometry":{"type":"Point","coordinates":[-122.7833620002,47.382219999187797]}},
{"type":"Feature","properties":{"STATION_NAME":"CL_CanyonCreek_0.98","OVERALL_ANNUAL":93},"geometry":{"type":"Point","coordinates":[-122.359394999908005,47.197914999145397]}},
{"type":"Feature","properties":{"STATION_NAME":"GH_PurdyCreek_0.14","OVERALL_ANNUAL":65},"geometry":{"type":"Point","coordinates":[-122.625041000150006,47.389210999189601]}},
{"type":"Feature","properties":{"STATION_NAME":"MP_FennelCreek_0.50","OVERALL_ANNUAL":78},"geometry":{"type":"Point","coordinates":[-122.216539999961,47.151270998942401]}},
{"type":"Feature","properties":{"STATION_NAME":"MP_BallCreek_0.31","OVERALL_ANNUAL":44},"geometry":{"type":"Point","coordinates":[-122.219992000003998,47.161713999042703]}},
{"type":"Feature","properties":{"STATION_NAME":"KP_WhitemanCreek_0.06","OVERALL_ANNUAL":49},"geometry":{"type":"Point","coordinates":[-122.794949999921002,47.219874999107098]}},
{"type":"Feature","properties":{"STATION_NAME":"KP_VaughnCreek_0.16","OVERALL_ANNUAL":64},"geometry":{"type":"Point","coordinates":[-122.761137999810003,47.345024999057799]}},
{"type":"Feature","properties":{"STATION_NAME":"KP_SchoolHouseCreek_0.05","OVERALL_ANNUAL":68},"geometry":{"type":"Point","coordinates":[-122.751039999948006,47.226711998945099]}},
{"type":"Feature","properties":{"STATION_NAME":"KP_MinterCreek_0.18","OVERALL_ANNUAL":72},"geometry":{"type":"Point","coordinates":[-122.702961999967997,47.373250998935603]}},
{"type":"Feature","properties":{"STATION_NAME":"GH_McCormickCreek_0.86","OVERALL_ANNUAL":70},"geometry":{"type":"Point","coordinates":[-122.617201999860995,47.361825999126197]}},
{"type":"Feature","properties":{"STATION_NAME":"KP_HugeCreek_0.25","OVERALL_ANNUAL":82},"geometry":{"type":"Point","coordinates":[-122.698767000005006,47.388998998978103]}},
{"type":"Feature","properties":{"STATION_NAME":"KP_DutchersCreek_0.61","OVERALL_ANNUAL":62},"geometry":{"type":"Point","coordinates":[-122.769420000118004,47.317113999160398]}},
{"type":"Feature","properties":{"STATION_NAME":"GH_RayNashCreek_0.04","OVERALL_ANNUAL":63},"geometry":{"type":"Point","coordinates":[-122.659256999939004,47.318712998941898]}},
{"type":"Feature","properties":{"STATION_NAME":"KP_RockyCreek_0.10","OVERALL_ANNUAL":80},"geometry":{"type":"Point","coordinates":[-122.781977713984006,47.372565284992099]}},
{"type":"Feature","properties":{"STATION_NAME":"KP_LittleMinterCreek_0.34","OVERALL_ANNUAL":71},"geometry":{"type":"Point","coordinates":[-122.69493099988,47.381458999174399]}},
{"type":"Feature","properties":{"STATION_NAME":"NI_HornCreek_1.29","OVERALL_ANNUAL":23},"geometry":{"type":"Point","coordinates":[-122.477724999974996,46.904531998986499]}},
{"type":"Feature","properties":{"STATION_NAME":"MP_VanOgleCreek_0.28","OVERALL_ANNUAL":24},"geometry":{"type":"Point","coordinates":[-122.212445999921002,47.186084998972397]}},
{"type":"Feature","properties":{"STATION_NAME":"NI_CopperCreek_0.33","OVERALL_ANNUAL":80},"geometry":{"type":"Point","coordinates":[-121.961512000010003,46.758048999188098]}},
{"type":"Feature","properties":{"STATION_NAME":"NI_GoatCreek_0.07","OVERALL_ANNUAL":75},"geometry":{"type":"Point","coordinates":[-121.941012000138002,46.751745998969398]}},
{"type":"Feature","properties":{"STATION_NAME":"NI_LacamasCreek_0.45","OVERALL_ANNUAL":28},"geometry":{"type":"Point","coordinates":[-122.531559000054997,47.005489999109997]}},
{"type":"Feature","properties":{"STATION_NAME":"NI_LittleMashelRiver_0.31","OVERALL_ANNUAL":45},"geometry":{"type":"Point","coordinates":[-122.277478000171001,46.853882999120302]}},
{"type":"Feature","properties":{"STATION_NAME":"NI_LynchCreek_0.29","OVERALL_ANNUAL":36},"geometry":{"type":"Point","coordinates":[-122.274972000174003,46.879466998966898]}},
{"type":"Feature","properties":{"STATION_NAME":"NI_MashelRiver_0.31","OVERALL_ANNUAL":30},"geometry":{"type":"Point","coordinates":[-122.331126000067997,46.846920999190303]}},
{"type":"Feature","properties":{"STATION_NAME":"NI_MidwayCreek_0.05","OVERALL_ANNUAL":4},"geometry":{"type":"Point","coordinates":[-122.247941000043994,46.848829998960298]}},
{"type":"Feature","properties":{"STATION_NAME":"NI_MuckCreek_6.11","OVERALL_ANNUAL":56},"geometry":{"type":"Point","coordinates":[-122.543457000139995,47.005517998977297]}},
{"type":"Feature","properties":{"STATION_NAME":"NI_OhopCreek_0.19","OVERALL_ANNUAL":55},"geometry":{"type":"Point","coordinates":[-122.369228999965998,46.845964998958898]}},
{"type":"Feature","properties":{"STATION_NAME":"GH_GoodnoughCreek_0.09","OVERALL_ANNUAL":73},"geometry":{"type":"Point","coordinates":[-122.624535999833995,47.380940999002803]}},
{"type":"Feature","properties":{"STATION_NAME":"NI_TanwaxCreek_7.45","OVERALL_ANNUAL":43},"geometry":{"type":"Point","coordinates":[-122.357611000033003,46.912888999012303]}},
{"type":"Feature","properties":{"STATION_NAME":"MP_HorseHavenCreek_0.73","OVERALL_ANNUAL":50},"geometry":{"type":"Point","coordinates":[-122.237842000136993,47.1033479990828]}},
{"type":"Feature","properties":{"STATION_NAME":"GH_CrescentCreek_0.81","OVERALL_ANNUAL":60},"geometry":{"type":"Point","coordinates":[-122.578415999917993,47.357864999130399]}},
{"type":"Feature","properties":{"STATION_NAME":"CL_ClarksCreek_0.70","OVERALL_ANNUAL":63},"geometry":{"type":"Point","coordinates":[-122.340273999868003,47.206213999086501]}},
{"type":"Feature","properties":{"STATION_NAME":"CW_WilkesonCreek_3.38","OVERALL_ANNUAL":77},"geometry":{"type":"Point","coordinates":[-122.064205000186007,47.114352998959198]}},
{"type":"Feature","properties":{"STATION_NAME":"MP_CanyonfallsCreek_0.58","OVERALL_ANNUAL":67},"geometry":{"type":"Point","coordinates":[-122.222753000066007,47.143457999175197]}},
{"type":"Feature","properties":{"STATION_NAME":"AI_SchoolHouseCreek_0.65","OVERALL_ANNUAL":52},"geometry":{"type":"Point","coordinates":[-122.704153999894999,47.158626998998898]}},
{"type":"Feature","properties":{"STATION_NAME":"CC_CloverCreek_0.39","OVERALL_ANNUAL":76},"geometry":{"type":"Point","coordinates":[-122.522871000183997,47.155687998976603]}},
{"type":"Feature","properties":{"STATION_NAME":"CC_CloverCreek_1.84","OVERALL_ANNUAL":42},"geometry":{"type":"Point","coordinates":[-122.500269999870994,47.143746998955699]}},
{"type":"Feature","properties":{"STATION_NAME":"CC_CloverCreek_10.66","OVERALL_ANNUAL":29},"geometry":{"type":"Point","coordinates":[-122.376962361140002,47.104373999098797]}},
{"type":"Feature","properties":{"STATION_NAME":"CC_CloverCreek_4.84","OVERALL_ANNUAL":66},"geometry":{"type":"Point","coordinates":[-122.455400000032,47.141339998931997]}},
{"type":"Feature","properties":{"STATION_NAME":"CC_CloverCreek_7.33","OVERALL_ANNUAL":13},"geometry":{"type":"Point","coordinates":[-122.415251999855002,47.124714999069198]}},
{"type":"Feature","properties":{"STATION_NAME":"CC_CloverCreek_8.31","OVERALL_ANNUAL":27},"geometry":{"type":"Point","coordinates":[-122.396214000171,47.1277409990537]}},
{"type":"Feature","properties":{"STATION_NAME":"CC_NorthForkCloverCreek_0.04","OVERALL_ANNUAL":63},"geometry":{"type":"Point","coordinates":[-122.429080000173002,47.134377999065002]}},
{"type":"Feature","properties":{"STATION_NAME":"CC_NorthForkCloverCreek_0.99","OVERALL_ANNUAL":57},"geometry":{"type":"Point","coordinates":[-122.409684000105997,47.134035999001]}},
{"type":"Feature","properties":{"STATION_NAME":"CC_NorthForkCloverCreek_1.03","OVERALL_ANNUAL":60},"geometry":{"type":"Point","coordinates":[-122.409216000186007,47.134373999091601]}},
{"type":"Feature","properties":{"STATION_NAME":"CC_NorthForkCloverCreek_2.09","OVERALL_ANNUAL":18},"geometry":{"type":"Point","coordinates":[-122.409725000052006,47.147334998944601]}},
{"type":"Feature","properties":{"STATION_NAME":"CC_SpanawayCreek_2.36","OVERALL_ANNUAL":36},"geometry":{"type":"Point","coordinates":[-122.446637000164003,47.123026999171401]}},
{"type":"Feature","properties":{"STATION_NAME":"GH_ArtondaleCreek_0.30","OVERALL_ANNUAL":53},"geometry":{"type":"Point","coordinates":[-122.622740999976998,47.300343998981802]}},
{"type":"Feature","properties":{"STATION_NAME":"CL_CanyonCreek_0.49","OVERALL_ANNUAL":92},"geometry":{"type":"Point","coordinates":[-122.359430999929998,47.2030909989519]}},
{"type":"Feature","properties":{"STATION_NAME":"CL_DiruCreek_0.59","OVERALL_ANNUAL":88},"geometry":{"type":"Point","coordinates":[-122.339389999968006,47.1913109191266]}},
{"type":"Feature","properties":{"STATION_NAME":"CL_RodyCreek_0.45","OVERALL_ANNUAL":87},"geometry":{"type":"Point","coordinates":[-122.346776999873995,47.1961219990229]}},
{"type":"Feature","properties":{"STATION_NAME":"CL_SquallyCreek_0.07","OVERALL_ANNUAL":78},"geometry":{"type":"Point","coordinates":[-122.379495999802003,47.220909999006501]}},
{"type":"Feature","properties":{"STATION_NAME":"CL_SwanCreek_0.76","OVERALL_ANNUAL":91},"geometry":{"type":"Point","coordinates":[-122.39413599996,47.224003999016396]}},
{"type":"Feature","properties":{"STATION_NAME":"CL_SwanCreek_3.95","OVERALL_ANNUAL":61},"geometry":{"type":"Point","coordinates":[-122.393972999837999,47.184580999117898]}},
{"type":"Feature","properties":{"STATION_NAME":"CL_SwanCreek_5.03","OVERALL_ANNUAL":45},"geometry":{"type":"Point","coordinates":[-122.393563000037005,47.1700329990462]}},
{"type":"Feature","properties":{"STATION_NAME":"CW_CoplarCreek_0.48","OVERALL_ANNUAL":93},"geometry":{"type":"Point","coordinates":[-122.169761999960997,47.0780789990702]}},
{"type":"Feature","properties":{"STATION_NAME":"CW_EvansCreek_0.43","OVERALL_ANNUAL":80},"geometry":{"type":"Point","coordinates":[-122.007346000083999,47.003425999087099]}},
{"type":"Feature","properties":{"STATION_NAME":"CW_FiskeCreek_0.54","OVERALL_ANNUAL":92},"geometry":{"type":"Point","coordinates":[-122.196059,47.037262998983103]}},
{"type":"Feature","properties":{"STATION_NAME":"CW_KapowsinCreek_0.66","OVERALL_ANNUAL":56},"geometry":{"type":"Point","coordinates":[-122.210813999975997,47.025291998963901]}},
{"type":"Feature","properties":{"STATION_NAME":"CW_SouthPrairieCreek_1.27","OVERALL_ANNUAL":82},"geometry":{"type":"Point","coordinates":[-122.145174000137999,47.109202998927799]}},
{"type":"Feature","properties":{"STATION_NAME":"CW_SpiketonCreek_0.01","OVERALL_ANNUAL":78},"geometry":{"type":"Point","coordinates":[-122.064284999858998,47.138414999055101]}},
{"type":"Feature","properties":{"STATION_NAME":"CW_VoightsCreek_0.62","OVERALL_ANNUAL":71},"geometry":{"type":"Point","coordinates":[-122.175672000180001,47.083029998972798]}},
{"type":"Feature","properties":{"STATION_NAME":"CL_ClearCreek_1.74","OVERALL_ANNUAL":72},"geometry":{"type":"Point","coordinates":[-122.373929999935001,47.218899998972098]}},
{"type":"Feature","properties":{"STATION_NAME":"NI_Twenty-fiveMileCreek_0.24","OVERALL_ANNUAL":43},"geometry":{"type":"Point","coordinates":[-122.258237000031997,46.926009998999099]}}
]
}
